NORAD_CAT_ID,OBJECT_NAME,OBJECT_TYPE,EPOCH,MEAN_MOTION,ECCENTRICITY,INCLINATION,RA_OF_ASC_NODE,ARG_OF_PERICENTER,MEAN_ANOMALY,BSTAR,MEAN_MOTION_DOT,MEAN_MOTION_DDOT,TLE_LINE0,TLE_LINE1,TLE_LINE2,SEMIMAJOR_AXIS,PERIOD,APOGEE,PERIGEE,DECAYED
55402.0,STARLINK-5071,PAYLOAD,2024-03-25 05:21:20,14.9832183,0.0002591,70.0008,65.9475,260.9245,99.1621,5.194e-05,5.27e-06,0.0,0 STARLINK-5071,1 55402U 23014M   24085.22315285  .00000527  00000-0  51940-4 0  9990,2 55402  70.0008  65.9475 0002591 260.9245  99.1621 14.98321830 64090,6950.218,96.108,573.884,570.282,0.0
55402.0,STARLINK-5071,PAYLOAD,2024-03-25 22:58:49,14.98327346,0.0002855,70.0002,64.0958,273.7381,86.3451,-0.0001072,-1.372e-05,0.0,0 STARLINK-5071,1 55402U 23014M   24085.95751712 -.00001372  00000-0 -10720-3 0  9990,2 55402  70.0002  64.0958 0002855 273.7381  86.3451 14.98327346 65140,6950.201,96.107,574.05,570.082,0.0
55402.0,STARLINK-5071,PAYLOAD,2024-03-26 05:23:21,14.98326815,0.0002957,70.0002,63.4219,270.0526,90.0294,-0.00010319,-1.324e-05,0.0,0 STARLINK-5071,1 55402U 23014M   24086.22455724 -.00001324  00000-0 -10319-3 0  9996,2 55402  70.0002  63.4219 0002957 270.0526  90.0294 14.98326815 64244,6950.203,96.107,574.123,570.013,0.0
55402.0,STARLINK-5071,PAYLOAD,2024-03-26 08:35:37,14.98326709,0.0002859,70.0003,63.0847,271.565,88.5181,-4.5309e-05,-6.33e-06,0.0,0 STARLINK-5071,1 55402U 23014M   24086.35807630 -.00000633  00000-0 -45309-4 0  9997,2 55402  70.0003  63.0847 0002859 271.5650  88.5181 14.98326709 65209,6950.203,96.107,574.055,570.081,0.0
55402.0,STARLINK-5071,PAYLOAD,2024-03-26 23:00:49,14.98332208,0.0003084,69.9998,61.5701,273.3856,86.695,0.00013727,1.545e-05,0.0,0 STARLINK-5071,1 55402U 23014M   24086.95890771  .00001545  00000-0  13727-3 0  9990,2 55402  69.9998  61.5701 0003084 273.3856  86.6950 14.98332208 65293,6950.186,96.107,574.195,569.908,0.0
55402.0,STARLINK-5071,PAYLOAD,2024-03-27 05:25:21,14.98338135,0.0002985,69.9999,60.8968,269.7666,90.3151,0.00017256,1.967e-05,0.0,0 STARLINK-5071,1 55402U 23014M   24087.22594285  .00001967  00000-0  17256-3 0  9991,2 55402  69.9999  60.8968 0002985 269.7666  90.3151 14.98338135 64398,6950.168,96.106,574.107,569.958,0.0
55402.0,STARLINK-5071,PAYLOAD,2024-03-27 08:37:37,14.98341113,0.0002722,70.0002,60.56,267.1711,92.9137,0.00020063,2.302e-05,0.0,0 STARLINK-5071,1 55402U 23014M   24087.35945994  .00002302  00000-0  20063-3 0  9996,2 55402  70.0002  60.5600 0002722 267.1711  92.9137 14.98341113 65357,6950.159,96.106,573.915,570.132,0.0
55402.0,STARLINK-5071,PAYLOAD,2024-03-27 21:26:42,14.98328826,0.0002644,70.0024,59.214,268.3654,91.7202,0.00013803,1.554e-05,0.0,0 STARLINK-5071,1 55402U 23014M   24087.89354886  .00001554  00000-0  13803-3 0  9991,2 55402  70.0024  59.2140 0002644 268.3654  91.7202 14.98328826 64497,6950.197,96.107,573.899,570.224,0.0
55402.0,STARLINK-5071,PAYLOAD,2024-03-28 07:03:31,14.98329354,0.000267,70.0009,58.2057,260.5214,99.5643,0.00010518,1.162e-05,0.0,0 STARLINK-5071,1 55402U 23014M   24088.29410926  .00001162  00000-0  10518-3 0  9999,2 55402  70.0009  58.2057 0002670 260.5214  99.5643 14.98329354 65494,6950.195,96.107,573.916,570.204,0.0
55402.0,STARLINK-5071,PAYLOAD,2024-03-28 23:04:50,14.98346522,0.0002776,70.0007,56.5218,261.8315,98.2529,3.6145e-05,3.39e-06,0.0,0 STARLINK-5071,1 55402U 23014M   24088.96169569  .00000339  00000-0  36145-4 0  9997,2 55402  70.0007  56.5218 0002776 261.8315  98.2529 14.98346522 65591,6950.142,96.106,573.936,570.077,0.0
55402.0,STARLINK-5071,PAYLOAD,2024-03-29 03:53:14,14.98345855,0.0002815,70.0007,56.0166,262.6169,97.4671,2.8367e-05,2.46e-06,0.0,0 STARLINK-5071,1 55402U 23014M   24089.16197444  .00000246  00000-0  28367-4 0  9997,2 55402  70.0007  56.0166 0002815 262.6169  97.4671 14.98345855 64684,6950.144,96.106,573.965,570.052,0.0
55402.0,STARLINK-5071,PAYLOAD,2024-03-29 07:05:30,14.98346689,0.0002746,70.001,55.6807,260.3454,99.7395,4.3705e-05,4.29e-06,0.0,0 STARLINK-5071,1 55402U 23014M   24089.29549228  .00000429  00000-0  43705-4 0  9998,2 55402  70.0010  55.6807 0002746 260.3454  99.7395 14.98346689 65641,6950.141,96.106,573.915,570.098,0.0
55402.0,STARLINK-5071,PAYLOAD,2024-03-29 21:30:44,14.98323737,0.0002468,70.003,54.1642,269.9825,90.1051,0.00011837,1.319e-05,0.0,0 STARLINK-5071,1 55402U 23014M   24089.89634352  .00001319  00000-0  11837-3 0  9996,2 55402  70.0030  54.1642 0002468 269.9825  90.1051 14.98323737 64790,6950.212,96.107,573.793,570.362,0.0
55402.0,STARLINK-5071,PAYLOAD,2024-03-29 23:06:53,14.98316351,0.0003024,70.001,53.9972,268.0658,92.0154,-0.00012273,-1.557e-05,0.0,0 STARLINK-5071,1 55402U 23014M   24089.96311348 -.00001557  00000-0 -12273-3 0  9992,2 55402  70.0010  53.9972 0003024 268.0658  92.0154 14.98316351 65749,6950.235,96.108,574.202,569.998,0.0
55402.0,STARLINK-5071,PAYLOAD,2024-03-30 03:55:17,14.98322244,0.0002735,70.0009,53.4903,256.6632,103.4222,-0.00014091,-1.773e-05,0.0,0 STARLINK-5071,1 55402U 23014M   24090.16339137 -.00001773  00000-0 -14091-3 0  9992,2 55402  70.0009  53.4903 0002735 256.6632 103.4222 14.98322244 64839,6950.217,96.107,573.983,570.181,0.0
55402.0,STARLINK-5071,PAYLOAD,2024-03-30 07:07:32,14.98323906,0.0003066,70.0004,53.154,268.9485,91.1323,-9.6723e-05,-1.247e-05,0.0,0 STARLINK-5071,1 55402U 23014M   24090.29690971 -.00001247  00000-0 -96723-4 0  9991,2 55402  70.0004  53.1540 0003066 268.9485  91.1323 14.98323906 65795,6950.212,96.107,574.208,569.946,0.0
55402.0,STARLINK-5071,PAYLOAD,2024-03-30 21:32:45,14.98331946,0.000312,70.0005,51.6396,269.8293,90.2508,-9.012e-05,-1.168e-05,0.0,0 STARLINK-5071,1 55402U 23014M   24090.89774590 -.00001168  00000-0 -90120-4 0  9994,2 55402  70.0005  51.6396 0003120 269.8293  90.2508 14.98331946 64940,6950.187,96.107,574.22,569.883,0.0
55402.0,STARLINK-5071,PAYLOAD,2024-03-30 23:08:53,14.98333365,0.0003113,70.0006,51.4711,269.6689,90.4114,-7.0482e-05,-9.34e-06,0.0,0 STARLINK-5071,1 55402U 23014M   24090.96450449 -.00000934  00000-0 -70482-4 0  9995,2 55402  70.0006  51.4711 0003113 269.6689  90.4114 14.98333365 65896,6950.182,96.107,574.211,569.884,0.0
55402.0,STARLINK-5071,PAYLOAD,2024-03-31 07:09:32,14.98338972,0.0003079,70.0006,50.6289,268.7594,91.3212,1.0199e-05,2.9e-07,0.0,0 STARLINK-5071,1 55402U 23014M   24091.29829859  .00000029  00000-0  10199-4 0  9999,2 55402  70.0006  50.6289 0003079 268.7594  91.3212 14.98338972 65004,6950.165,96.106,574.17,569.89,0.0
55402.0,STARLINK-5071,PAYLOAD,2024-03-31 21:34:46,14.98323612,0.0002993,70.0009,49.1141,270.9595,89.1221,0.0002112,2.427e-05,0.0,0 STARLINK-5071,1 55402U 23014M   24091.89914352  .00002427  00000-0  21120-3 0  9997,2 55402  70.0009  49.1141 0002993 270.9595  89.1221 14.98323612 66031,6950.213,96.107,574.158,569.997,0.0
55402.0,STARLINK-5071,PAYLOAD,2024-04-01 03:59:18,14.98329588,0.0002996,70.0009,48.4411,270.7362,89.3453,0.00023523,2.715e-05,0.0,0 STARLINK-5071,1 55402U 23014M   24092.16618161  .00002715  00000-0  23523-3 0  9996,2 55402  70.0009  48.4411 0002996 270.7362  89.3453 14.98329588 65133,6950.194,96.107,574.141,569.977,0.0
55402.0,STARLINK-5071,PAYLOAD,2024-04-01 07:11:34,14.98332605,0.0002968,70.0009,48.1043,270.5207,89.5612,0.00027087,3.141e-05,0.0,0 STARLINK-5071,1 55402U 23014M   24092.29969993  .00003141  00000-0  27087-3 0  9995,2 55402  70.0009  48.1043 0002968 270.5207  89.5612 14.98332605 66095,6950.185,96.107,574.113,569.987,0.0
55402.0,STARLINK-5071,PAYLOAD,2024-04-02 04:01:19,14.98310478,0.0002659,70.0013,45.9161,272.6721,87.4133,0.00044153,5.176e-05,0.0,0 STARLINK-5071,1 55402U 23014M   24093.16759117  .00005176  00000-0  44153-3 0  9990,2 55402  70.0013  45.9161 0002659 272.6721  87.4133 14.98310478 65286,6950.253,96.108,573.966,570.27,0.0
55402.0,STARLINK-5071,PAYLOAD,2024-04-02 07:13:35,14.98326357,0.0002607,70.0014,45.5794,271.0295,89.0565,0.00018427,2.106e-05,0.0,0 STARLINK-5071,1 55402U 23014M   24093.30110598  .00002106  00000-0  18427-3 0  9995,2 55402  70.0014  45.5794 0002607 271.0295  89.0565 14.98326357 65300,6950.204,96.107,573.881,570.257,0.0
55402.0,STARLINK-5071,PAYLOAD,2024-04-02 13:38:07,14.98328143,0.0002676,70.002,44.9071,266.6141,93.4712,-1.5034e-05,-2.72e-06,0.0,0 STARLINK-5071,1 55402U 23014M   24093.56814782 -.00000272  00000-0 -15034-4 0  9995,2 55402  70.0020  44.9071 0002676 266.6141  93.4712 14.98328143 66280,6950.199,96.107,573.924,570.204,0.0
55402.0,STARLINK-5071,PAYLOAD,2024-04-02 21:38:48,14.98328671,0.0002714,70.0017,44.065,269.0522,91.0326,-1.2788e-05,-2.46e-06,0.0,0 STARLINK-5071,1 55402U 23014M   24093.90194744 -.00000246  00000-0 -12788-4 0  9996,2 55402  70.0017  44.0650 0002714 269.0522  91.0326 14.98328671 66330,6950.197,96.107,573.948,570.176,0.0
55402.0,STARLINK-5071,PAYLOAD,2024-04-03 13:40:08,14.98352733,0.0002649,70.0019,42.3819,274.1999,85.8858,-0.0004912,-5.952e-05,0.0,0 STARLINK-5071,1 55402U 23014M   24094.56954137 -.00005952  00000-0 -49120-3 0  9997,2 55402  70.0019  42.3819 0002649 274.1999  85.8858 14.98352733 66430,6950.123,96.106,573.829,570.147,0.0
55402.0,STARLINK-5071,PAYLOAD,2024-04-04 04:05:21,14.98327713,0.0002752,70.0016,40.8669,267.9327,92.1517,2.3941e-05,1.93e-06,0.0,0 STARLINK-5071,1 55402U 23014M   24095.17038834  .00000193  00000-0  23941-4 0  9996,2 55402  70.0016  40.8669 0002752 267.9327  92.1517 14.98327713 65581,6950.2,96.107,573.978,570.152,0.0
55402.0,STARLINK-5071,PAYLOAD,2024-04-04 13:42:09,14.98331615,0.0002886,70.0012,39.8572,268.3633,91.7195,2.3126e-05,1.83e-06,0.0,0 STARLINK-5071,1 55402U 23014M   24095.57094585  .00000183  00000-0  23126-4 0  9999,2 55402  70.0012  39.8572 0002886 268.3633  91.7195 14.98331615 66585,6950.188,96.107,574.059,570.047,0.0
55402.0,STARLINK-5071,PAYLOAD,2024-04-04 21:42:50,14.98328965,0.0002883,70.0011,39.0155,269.8927,90.1901,0.0001225,1.369e-05,0.0,0 STARLINK-5071,1 55402U 23014M   24095.90474550  .00001369  00000-0  12250-3 0  9992,2 55402  70.0011  39.0155 0002883 269.8927  90.1901 14.98328965 66630,6950.196,96.107,574.065,570.057,0.0
